LANDSAT 9               
1 49260U 21088A   24084.15841413  .00001178  00000+0  27134-3 0  9991
2 49260  98.1938 155.1922 0001433  91.3806 268.7556 14.57127760132302
